start=new Date('2021-09-17T00:00:00.000Z').valueOf();
sats=[{"SEMIMAJOR_AXIS":"6925.543","GP_ID":"184852573","MEAN_MOTION":"15.06336553","COUNTRY_CODE":"US","PERIOD":"95.596","OBJECT_ID":"2021-036L","MEAN_MOTION_DDOT":"0.0000000000000","RCS_SIZE":"LARGE","MEAN_ELEMENT_THEORY":"SGP4","TLE_LINE2":"2 48286  53.0503 220.3898 0001601  58.9628 216.0692 15.06336553  3606","LAUNCH_DATE":"2021-04-29","CLASSIFICATION_TYPE":"U","OBJECT_TYPE":"PAYLOAD","ARG_OF_PERICENTER":"58.9628","OBJECT_NAME":"STARLINK-2547","RA_OF_ASC_NODE":"220.3898","SITE":"AFETR","REF_FRAME":"TEME","APOAPSIS":"548.517","TLE_LINE1":"1 48286U 21036L   21259.91667824  .00086993  00000-0  57974-2 0  9991","MEAN_ANOMALY":"216.0692","PERIAPSIS":"546.299","FILE":"3117438","CENTER_NAME":"EARTH","BSTAR":"0.00579740000000","INCLINATION":"53.0503","DECAY_DATE":null,"EPHEMERIS_TYPE":"0","REV_AT_EPOCH":"360","MEAN_MOTION_DOT":"0.00086993","NORAD_CAT_ID":"48286","TIME_SYSTEM":"UTC","ECCENTRICITY":"0.00016010","EPOCH":"2021-09-16T22:00:00.999936","ELEMENT_SET_NO":"999"},{"MEAN_ANOMALY":"224.8936","PERIAPSIS":"546.101","BSTAR":"0.00039949000000","FILE":"3117438","CENTER_NAME":"EARTH","MEAN_MOTION_DOT":"0.00005672","INCLINATION":"53.0529","DECAY_DATE":null,"EPHEMERIS_TYPE":"0","REV_AT_EPOCH":"364","TIME_SYSTEM":"UTC","NORAD_CAT_ID":"48287","ECCENTRICITY":"0.00016480","EPOCH":"2021-09-16T22:00:00.999936","ELEMENT_SET_NO":"999","SEMIMAJOR_AXIS":"6925.377","GP_ID":"184853318","MEAN_MOTION":"15.06390644","COUNTRY_CODE":"US","MEAN_ELEMENT_THEORY":"SGP4","RCS_SIZE":"LARGE","PERIOD":"95.593","MEAN_MOTION_DDOT":"0.0000000000000","OBJECT_ID":"2021-036M","CLASSIFICATION_TYPE":"U","TLE_LINE2":"2 48287  53.0529 220.3870 0001648  70.1583 224.8936 15.06390644  3645","LAUNCH_DATE":"2021-04-29","RA_OF_ASC_NODE":"220.3870","OBJECT_TYPE":"PAYLOAD","ARG_OF_PERICENTER":"70.1583","OBJECT_NAME":"STARLINK-2566","TLE_LINE1":"1 48287U 21036M   21259.91667824  .00005672  00000-0  39949-3 0  9990","SITE":"AFETR","REF_FRAME":"TEME","APOAPSIS":"548.384"},{"ELEMENT_SET_NO":"999","ECCENTRICITY":"0.00017750","EPOCH":"2021-09-16T22:00:00.999936","FILE":"3117438","CENTER_NAME":"EARTH","BSTAR":"0.00049305000000","MEAN_ANOMALY":"236.1598","PERIAPSIS":"545.966","NORAD_CAT_ID":"48288","TIME_SYSTEM":"UTC","DECAY_DATE":null,"EPHEMERIS_TYPE":"0","INCLINATION":"53.0539","REV_AT_EPOCH":"356","MEAN_MOTION_DOT":"0.00007071","TLE_LINE2":"2 48288  53.0539 220.3866 0001775  78.8741 236.1598 15.06405947  3568","LAUNCH_DATE":"2021-04-29","CLASSIFICATION_TYPE":"U","PERIOD":"95.592","MEAN_MOTION_DDOT":"0.0000000000000","OBJECT_ID":"2021-036N","MEAN_ELEMENT_THEORY":"SGP4","RCS_SIZE":"LARGE","REF_FRAME":"TEME","SITE":"AFETR","APOAPSIS":"548.425","TLE_LINE1":"1 48288U 21036N   21259.91667824  .00007071  00000-0  49305-3 0  9993","OBJECT_NAME":"STARLINK-2562","OBJECT_TYPE":"PAYLOAD","ARG_OF_PERICENTER":"78.8741","RA_OF_ASC_NODE":"220.3866","SEMIMAJOR_AXIS":"6925.330","COUNTRY_CODE":"US","MEAN_MOTION":"15.06405947","GP_ID":"184851572"},{"EPOCH":"2021-09-16T22:00:00.999936","ECCENTRICITY":"0.00018610","ELEMENT_SET_NO":"999","MEAN_ANOMALY":"267.0969","PERIAPSIS":"545.860","FILE":"3117438","CENTER_NAME":"EARTH","BSTAR":"-0.00254760000000","DECAY_DATE":null,"EPHEMERIS_TYPE":"0","INCLINATION":"53.0527","REV_AT_EPOCH":"360","MEAN_MOTION_DOT":"-0.00038049","NORAD_CAT_ID":"48289","TIME_SYSTEM":"UTC","PERIOD":"95.591","OBJECT_ID":"2021-036P","MEAN_MOTION_DDOT":"0.0000000000000","MEAN_ELEMENT_THEORY":"SGP4","RCS_SIZE":"LARGE","LAUNCH_DATE":"2021-04-29","TLE_LINE2":"2 48289  53.0527 220.3912 0001861  67.9608 267.0969 15.06421136  3603","CLASSIFICATION_TYPE":"U","OBJECT_NAME":"STARLINK-2545","OBJECT_TYPE":"PAYLOAD","ARG_OF_PERICENTER":"67.9608","RA_OF_ASC_NODE":"220.3912","SITE":"AFETR","REF_FRAME":"TEME","APOAPSIS":"548.438","TLE_LINE1":"1 48289U 21036P   21259.91667824 -.00038049  00000-0 -25476-2 0  9997","SEMIMAJOR_AXIS":"6925.284","GP_ID":"184852321","MEAN_MOTION":"15.06421136","COUNTRY_CODE":"US"},{"TIME_SYSTEM":"UTC","NORAD_CAT_ID":"48290","MEAN_MOTION_DOT":"0.00009571","REV_AT_EPOCH":"364","EPHEMERIS_TYPE":"0","DECAY_DATE":null,"INCLINATION":"53.0531","BSTAR":"0.00066075000000","CENTER_NAME":"EARTH","FILE":"3117438","PERIAPSIS":"546.134","MEAN_ANOMALY":"284.0581","ELEMENT_SET_NO":"999","ECCENTRICITY":"0.00016020","EPOCH":"2021-09-16T22:00:00.999936","MEAN_MOTION":"15.06390329","COUNTRY_CODE":"US","GP_ID":"184853073","SEMIMAJOR_AXIS":"6925.378","TLE_LINE1":"1 48290U 21036Q   21259.91667824  .00009571  00000-0  66075-3 0  9996","APOAPSIS":"548.353","SITE":"AFETR","REF_FRAME":"TEME","RA_OF_ASC_NODE":"220.4089","OBJECT_TYPE":"PAYLOAD","ARG_OF_PERICENTER":"70.9871","OBJECT_NAME":"STARLINK-2540","CLASSIFICATION_TYPE":"U","TLE_LINE2":"2 48290  53.0531 220.4089 0001602  70.9871 284.0581 15.06390329  3647","LAUNCH_DATE":"2021-04-29","RCS_SIZE":"LARGE","MEAN_ELEMENT_THEORY":"SGP4","MEAN_MOTION_DDOT":"0.0000000000000","OBJECT_ID":"2021-036Q","PERIOD":"95.593"},{"FILE":"3117438","CENTER_NAME":"EARTH","BSTAR":"0.00209080000000","MEAN_ANOMALY":"314.9542","PERIAPSIS":"546.147","NORAD_CAT_ID":"48291","TIME_SYSTEM":"UTC","DECAY_DATE":null,"EPHEMERIS_TYPE":"0","INCLINATION":"53.0518","REV_AT_EPOCH":"361","MEAN_MOTION_DOT":"0.00030977","ELEMENT_SET_NO":"999","ECCENTRICITY":"0.00016500","EPOCH":"2021-09-16T22:00:00.999936","SEMIMAJOR_AXIS":"6925.425","COUNTRY_CODE":"US","MEAN_MOTION":"15.06375067","GP_ID":"184852819","TLE_LINE2":"2 48291  53.0518 220.3988 0001650  60.0554 314.9542 15.06375067  3610","LAUNCH_DATE":"2021-04-29","CLASSIFICATION_TYPE":"U","PERIOD":"95.594","MEAN_MOTION_DDOT":"0.0000000000000","OBJECT_ID":"2021-036R","MEAN_ELEMENT_THEORY":"SGP4","RCS_SIZE":"MEDIUM","SITE":"AFETR","REF_FRAME":"TEME","APOAPSIS":"548.433","TLE_LINE1":"1 48291U 21036R   21259.91667824  .00030977  00000-0  20908-2 0  9995","ARG_OF_PERICENTER":"60.0554","OBJECT_TYPE":"PAYLOAD","OBJECT_NAME":"STARLINK-2555","RA_OF_ASC_NODE":"220.3988"},{"MEAN_MOTION":"15.06394036","COUNTRY_CODE":"US","GP_ID":"184852072","SEMIMAJOR_AXIS":"6925.367","TLE_LINE1":"1 48292U 21036S   21259.91667824  .00010424  00000-0  71775-3 0  9990","APOAPSIS":"548.332","SITE":"AFETR","REF_FRAME":"TEME","RA_OF_ASC_NODE":"220.3942","OBJECT_NAME":"STARLINK-2542","OBJECT_TYPE":"PAYLOAD","ARG_OF_PERICENTER":"64.5755","CLASSIFICATION_TYPE":"U","LAUNCH_DATE":"2021-04-29","TLE_LINE2":"2 48292  53.0533 220.3942 0001588  64.5755 335.5725 15.06394036  3653","MEAN_ELEMENT_THEORY":"SGP4","RCS_SIZE":"LARGE","MEAN_MOTION_DDOT":"0.0000000000000","OBJECT_ID":"2021-036S","PERIOD":"95.593","TIME_SYSTEM":"UTC","NORAD_CAT_ID":"48292","MEAN_MOTION_DOT":"0.00010424","REV_AT_EPOCH":"365","DECAY_DATE":null,"EPHEMERIS_TYPE":"0","INCLINATION":"53.0533","BSTAR":"0.00071775000000","CENTER_NAME":"EARTH","FILE":"3117438","PERIAPSIS":"546.132","MEAN_ANOMALY":"335.5725","ELEMENT_SET_NO":"999","ECCENTRICITY":"0.00015880","EPOCH":"2021-09-16T22:00:00.999936"},{"LAUNCH_DATE":"2021-04-29","TLE_LINE2":"2 48293  53.0531 220.3925 0001834  62.4116 352.5957 15.06396362  3600","CLASSIFICATION_TYPE":"U","PERIOD":"95.592","OBJECT_ID":"2021-036T","MEAN_MOTION_DDOT":"0.0000000000000","MEAN_ELEMENT_THEORY":"SGP4","RCS_SIZE":"LARGE","SITE":"AFETR","REF_FRAME":"TEME","APOAPSIS":"548.495","TLE_LINE1":"1 48293U 21036T   21259.91667824  .00010093  00000-0  69556-3 0  9997","OBJECT_TYPE":"PAYLOAD","ARG_OF_PERICENTER":"62.4116","OBJECT_NAME":"STARLINK-2550","RA_OF_ASC_NODE":"220.3925","SEMIMAJOR_AXIS":"6925.360","COUNTRY_CODE":"US","MEAN_MOTION":"15.06396362","GP_ID":"184851822","ELEMENT_SET_NO":"999","EPOCH":"2021-09-16T22:00:00.999936","ECCENTRICITY":"0.00018340","FILE":"3117438","CENTER_NAME":"EARTH","BSTAR":"0.00069556000000","MEAN_ANOMALY":"352.5957","PERIAPSIS":"545.955","NORAD_CAT_ID":"48293","TIME_SYSTEM":"UTC","DECAY_DATE":null,"INCLINATION":"53.0531","EPHEMERIS_TYPE":"0","REV_AT_EPOCH":"360","MEAN_MOTION_DOT":"0.00010093"},{"SEMIMAJOR_AXIS":"6925.326","GP_ID":"184852574","MEAN_MOTION":"15.06407300","COUNTRY_CODE":"US","RCS_SIZE":"LARGE","MEAN_ELEMENT_THEORY":"SGP4","PERIOD":"95.592","MEAN_MOTION_DDOT":"0.0000000000000","OBJECT_ID":"2021-036U","CLASSIFICATION_TYPE":"U","LAUNCH_DATE":"2021-04-29","TLE_LINE2":"2 48294  53.0551 220.3986 0001880  75.2637 359.7494 15.06407300  3656","RA_OF_ASC_NODE":"220.3986","ARG_OF_PERICENTER":"75.2637","OBJECT_TYPE":"PAYLOAD","OBJECT_NAME":"STARLINK-2533","TLE_LINE1":"1 48294U 21036U   21259.91667824  .00009721  00000-0  67049-3 0  9999","SITE":"AFETR","REF_FRAME":"TEME","APOAPSIS":"548.493","MEAN_ANOMALY":"359.7494","PERIAPSIS":"545.889","BSTAR":"0.00067049000000","FILE":"3117438","CENTER_NAME":"EARTH","MEAN_MOTION_DOT":"0.00009721","INCLINATION":"53.0551","DECAY_DATE":null,"EPHEMERIS_TYPE":"0","REV_AT_EPOCH":"365","TIME_SYSTEM":"UTC","NORAD_CAT_ID":"48294","ECCENTRICITY":"0.00018800","EPOCH":"2021-09-16T22:00:00.999936","ELEMENT_SET_NO":"999"},{"SEMIMAJOR_AXIS":"6925.334","MEAN_MOTION":"15.06404668","COUNTRY_CODE":"US","GP_ID":"184853319","CLASSIFICATION_TYPE":"U","LAUNCH_DATE":"2021-04-29","TLE_LINE2":"2 48295  53.0551 220.4002 0001666  66.2499  28.7594 15.06404668  3653","MEAN_ELEMENT_THEORY":"SGP4","RCS_SIZE":"LARGE","OBJECT_ID":"2021-036V","MEAN_MOTION_DDOT":"0.0000000000000","PERIOD":"95.592","TLE_LINE1":"1 48295U 21036V   21259.91667824  .00008830  00000-0  61085-3 0  9994","APOAPSIS":"548.353","SITE":"AFETR","REF_FRAME":"TEME","RA_OF_ASC_NODE":"220.4002","OBJECT_TYPE":"PAYLOAD","ARG_OF_PERICENTER":"66.2499","OBJECT_NAME":"STARLINK-2535","BSTAR":"0.00061085000000","CENTER_NAME":"EARTH","FILE":"3117438","PERIAPSIS":"546.045","MEAN_ANOMALY":"28.7594","TIME_SYSTEM":"UTC","NORAD_CAT_ID":"48295","MEAN_MOTION_DOT":"0.00008830","REV_AT_EPOCH":"365","DECAY_DATE":null,"EPHEMERIS_TYPE":"0","INCLINATION":"53.0551","ELEMENT_SET_NO":"999","ECCENTRICITY":"0.00016660","EPOCH":"2021-09-16T22:00:00.999936"}];
